      2.10          N: GNSS NAV DATA                        RINEX VERSION / TYPE
fic2rin                                 07/25/2021 00:16:57 PGM / RUN BY / DATE
                                                            END OF HEADER
14 21  7 24 18  0  0.0 3.972137346864e-05-8.867573342286e-12 0.000000000000e+00
    1.130000000000e+02 6.875000000000e+00 4.373039297497e-09 1.788583163428e+00
    3.334134817123e-07 9.169625118375e-04 1.089274883270e-05 5.153754003525e+03
    5.832000000000e+05-1.154839992523e-07-2.191915978670e-01-1.117587089539e-08
    9.565819978913e-01 1.666250000000e+02 2.995410184160e+00-7.779252608525e-09
   -5.750239520557e-10 1.000000000000e+00 2.167000000000e+03 0.000000000000e+00
    2.400000000000e+00 0.000000000000e+00-7.916241884232e-09 3.690000000000e+02
    5.760000000000e+05 4.000000000000e+00
11 21  7 24 18  0  0.0 2.259947359562e-05 7.275957614183e-12 0.000000000000e+00
    8.200000000000e+01-1.343750000000e+01 4.960563770249e-09 1.122975343288e-01
   -5.848705768585e-07 5.189105868340e-04-1.266598701477e-07 5.153672325134e+03
    5.832000000000e+05 7.823109626770e-08 1.890714427982e+00 5.960464477539e-08
    9.596917740545e-01 3.809687500000e+02 1.738649480107e+00-8.629645173646e-09
    1.964367538078e-11 1.000000000000e+00 2.167000000000e+03 0.000000000000e+00
    3.840000000000e+02 6.300000000000e+01-5.587935447693e-09 3.380000000000e+02
    5.760000000000e+05 4.000000000000e+00
23 21  7 24 18  0  0.0 8.016079664230e-05-5.115907697473e-12 0.000000000000e+00
    2.220000000000e+02-1.503125000000e+02 4.356967199458e-09 2.694745547814e+00
   -7.735565304756e-06 1.450393698178e-03 7.815659046173e-06 5.153669828415e+03
    5.832000000000e+05-1.490116119385e-08 2.852690573487e+00 1.229345798492e-07
    9.652870202390e-01 2.309687500000e+02 2.633442613775e+00-8.026048602854e-09
   -2.485817830005e-10 1.000000000000e+00 2.167000000000e+03 0.000000000000e+00
    2.400000000000e+00 0.000000000000e+00-8.381903171539e-09 9.900000000000e+02
    5.760000000000e+05 4.000000000000e+00
18 21  7 24 18  0  0.0 3.385832533240e-04-2.955857780762e-12 0.000000000000e+00
    2.070000000000e+02-5.187500000000e+00 4.803414367203e-09-2.839914788479e+00
   -8.381903171539e-08 1.717923558317e-03-3.501772880554e-07 5.153652271271e+03
    5.832000000000e+05-3.539025783539e-08 1.852973725050e+00-7.636845111847e-08
    9.684292453881e-01 3.930625000000e+02 2.885430198801e+00-8.489996499575e-09
    8.321775206769e-11 1.000000000000e+00 2.167000000000e+03 0.000000000000e+00
    2.400000000000e+00 0.000000000000e+00-8.381903171539e-09 7.190000000000e+02
    5.760000000000e+05 4.000000000000e+00
28 21  7 24 18  0  0.0 5.321777425706e-04-6.707523425575e-12 0.000000000000e+00
    9.800000000000e+01 1.409375000000e+01 4.090170372014e-09-4.386135526665e-01
    6.966292858124e-07 1.746700168587e-02 1.123920083046e-05 5.153726789474e+03
    5.832000000000e+05-3.688037395477e-07-1.689106967914e-01 6.519258022308e-08
    9.723043105716e-01 1.750625000000e+02-1.343628734250e+00-7.898543291746e-09
   -3.989451890970e-10 1.000000000000e+00 2.167000000000e+03 0.000000000000e+00
    4.850000000000e+00 6.300000000000e+01-1.117587089539e-08 9.800000000000e+01
    5.760000000000e+05 4.000000000000e+00
 2 21  7 24 20  0  0.0-6.218221969903e-04-2.614797267597e-12 0.000000000000e+00
    2.900000000000e+01 3.153125000000e+01 4.750912180276e-09-1.862702569153e+00
    2.225860953331e-06 2.020413987339e-02-5.271285772324e-07 5.153721353531e+03
    5.904000000000e+05 2.235174179077e-07 1.756971778573e+00 4.302710294724e-07
    9.632790393642e-01 3.889687500000e+02-1.504413716938e+00-8.318560787161e-09
    1.946509651369e-10 1.000000000000e+00 2.167000000000e+03 0.000000000000e+00
    2.400000000000e+00 0.000000000000e+00-1.769512891769e-08 2.900000000000e+01
    5.832000000000e+05 4.000000000000e+00
 1 21  7 24 20  0  0.0 6.183064542711e-04-1.148237060988e-11 0.000000000000e+00
    8.500000000000e+01 5.937500000000e-01 4.408397913182e-09-2.151271880743e+00
   -1.210719347000e-07 1.106930745300e-02-8.661299943924e-07 5.153677801132e+03
    5.904000000000e+05 1.098960638046e-07 1.842029759247e+00-7.264316082001e-08
    9.846922789230e-01 4.067187500000e+02 8.784778315335e-01-8.284630802412e-09
    2.117945363783e-10 1.000000000000e+00 2.167000000000e+03 0.000000000000e+00
    3.400000000000e+00 0.000000000000e+00 5.122274160385e-09 8.500000000000e+01
    5.832000000000e+05 4.000000000000e+00
 3 21  7 24 20  0  0.0-2.309177070856e-04-1.216449163621e-11 0.000000000000e+00
    3.000000000000e+01-1.656250000000e+02 4.210532528438e-09 3.101250472696e+00
   -8.588656783104e-06 3.724637208506e-03 8.152797818184e-06 5.153564199448e+03
    5.904000000000e+05 1.862645149231e-08 2.879267665170e+00-1.266598701477e-07
    9.704304134534e-01 2.247500000000e+02 9.010795179445e-01-7.928901699153e-09
   -2.439387324559e-10 1.000000000000e+00 2.167000000000e+03 0.000000000000e+00
    2.400000000000e+00 0.000000000000e+00 1.862645149231e-09 3.000000000000e+01
    5.832000000000e+05 4.000000000000e+00
 5 21  7 24 20  0  0.0-4.892516881227e-05-1.250555214938e-12 0.000000000000e+00
    7.500000000000e+01-1.392500000000e+02 4.633407285726e-09 4.496007301436e-01
   -7.061287760735e-06 6.072267540731e-03 6.994232535362e-06 5.153564867020e+03
    5.904000000000e+05-2.421438694000e-08 2.841664264414e+00 1.676380634308e-08
    9.573757523715e-01 2.432187500000e+02 9.491498444722e-01-8.233914404157e-09
   -2.585821995580e-10 1.000000000000e+00 2.167000000000e+03 0.000000000000e+00
    2.400000000000e+00 0.000000000000e+00-1.117587089539e-08 7.500000000000e+01
    5.832000000000e+05 4.000000000000e+00
 4 21  7 24 20  0  0.0-2.029561437666e-04-6.821210263297e-13 0.000000000000e+00
    7.300000000000e+01-1.131250000000e+01 4.404469178106e-09-4.721107705886e-01
   -7.469207048416e-07 1.313308486715e-03 1.106224954128e-05 5.153718379974e+03
    5.904000000000e+05 2.793967723846e-08-2.323649915746e+00 4.842877388000e-08
    9.606655391414e-01 1.662187500000e+02-2.964650649188e+00-7.782824185867e-09
    5.343079703573e-10 1.000000000000e+00 2.167000000000e+03 0.000000000000e+00
    2.400000000000e+00 0.000000000000e+00-4.190951585770e-09 8.410000000000e+02
    5.832000000000e+05 4.000000000000e+00
22 21  7 24 20  0  0.0-5.553923547268e-04 9.549694368616e-12 0.000000000000e+00
    1.400000000000e+01-1.597187500000e+02 5.094855078307e-09-9.772503093237e-01
   -8.286908268929e-06 6.876518600620e-03 6.943941116333e-06 5.153788722992e+03
    5.904000000000e+05-3.725290298462e-08 2.777776261965e+00-8.940696716309e-08
    9.360244834854e-01 2.311875000000e+02-9.190939716331e-01-8.569642674301e-09
   -1.878649681871e-10 1.000000000000e+00 2.167000000000e+03 0.000000000000e+00
    2.400000000000e+00 0.000000000000e+00-1.769512891769e-08 1.400000000000e+01
    5.832000000000e+05 4.000000000000e+00
16 21  7 24 20  0  0.0-3.624381497502e-04-6.139089236967e-12 0.000000000000e+00
    3.200000000000e+01 2.265625000000e+01 3.962665060906e-09 9.812311537247e-01
    1.329928636551e-06 1.217198721133e-02 1.108273863792e-05 5.153731697083e+03
    5.904000000000e+05-1.210719347000e-07-1.725109674428e-01 7.823109626770e-08
    9.731958640512e-01 1.750312500000e+02 6.782892732651e-01-7.696034856457e-09
   -7.064579982399e-10 1.000000000000e+00 2.167000000000e+03 0.000000000000e+00
    2.400000000000e+00 0.000000000000e+00-1.024454832077e-08 3.200000000000e+01
    5.832000000000e+05 4.000000000000e+00
10 21  7 24 20  0  0.0-1.686098985374e-04-7.617018127348e-12 0.000000000000e+00
    2.300000000000e+01-1.402500000000e+02 4.245533986389e-09 2.152403999398e+00
   -7.225200533867e-06 6.770967622288e-03 8.217990398407e-06 5.153681949615e+03
    5.904000000000e+05-2.086162567139e-07 2.876410770489e+00-3.539025783539e-08
    9.702931434612e-01 2.283125000000e+02-2.575967791101e+00-7.900329080417e-09
   -1.725071856167e-10 1.000000000000e+00 2.167000000000e+03 0.000000000000e+00
    2.400000000000e+00 0.000000000000e+00 2.328306436539e-09 2.300000000000e+01
    5.832000000000e+05 4.000000000000e+00
15 21  7 24 20  0  0.0-1.332354731858e-04 2.614797267597e-12 0.000000000000e+00
    2.700000000000e+01-1.715625000000e+01 5.154857577652e-09-8.085009958032e-01
   -8.381903171539e-07 1.336473110132e-02 1.049600541592e-05 5.153654230118e+03
    5.904000000000e+05 9.313225746155e-09-2.475543885071e+00 2.644956111908e-07
    9.293946908937e-01 1.606875000000e+02 1.002387712603e+00-8.341776039884e-09
    3.678724662220e-10 1.000000000000e+00 2.167000000000e+03 0.000000000000e+00
    2.400000000000e+00 0.000000000000e+00-1.071020960808e-08 2.700000000000e+01
    5.832000000000e+05 4.000000000000e+00
12 21  7 24 20  0  0.0-7.320288568735e-05-5.343281372916e-12 0.000000000000e+00
    5.600000000000e+01 8.906250000000e+00 3.886233305788e-09 2.788870168094e+00
    5.178153514862e-07 8.270797668956e-03 1.100078225136e-05 5.153706296921e+03
    5.904000000000e+05 5.401670932770e-08-1.912209509030e-01 1.862645149231e-08
    9.731381563217e-01 1.709375000000e+02 1.227419235555e+00-7.443167180646e-09
   -5.360937590283e-10 1.000000000000e+00 2.167000000000e+03 0.000000000000e+00
    2.400000000000e+00 0.000000000000e+00-1.257285475731e-08 5.600000000000e+01
    5.832000000000e+05 4.000000000000e+00
 9 21  7 24 20  0  0.0-3.566602244973e-04-1.364242052659e-12 0.000000000000e+00
    5.700000000000e+01-2.165625000000e+01 4.522688388125e-09 5.127617895810e-01
   -1.149252057076e-06 1.950147794560e-03 1.127086579800e-05 5.153747076035e+03
    5.904000000000e+05-3.539025783539e-08-2.374948557226e+00 4.656612873077e-08
    9.536026291715e-01 1.585937500000e+02 1.823502982870e+00-7.885685613315e-09
    5.585946962827e-10 1.000000000000e+00 2.167000000000e+03 0.000000000000e+00
    2.400000000000e+00 0.000000000000e+00 1.396983861923e-09 5.700000000000e+01
    5.832000000000e+05 4.000000000000e+00
